<?xml version="1.0" encoding="UTF-8"?>
<ndm xmlns:xsi="http://www.w3.org/2001/XMLSchema-instance" xsi:noNamespaceSchemaLocation="https://sanaregistry.org/r/ndmxml_unqualified/ndmxml-2.0.0-master-2.0.xsd">
<omm id="CCSDS_OMM_VERS" version="2.0">
<header><CREATION_DATE/><ORIGINATOR/></header><body><segment><metadata><OBJECT_NAME>ORBCOMM FM115</OBJECT_NAME><OBJECT_ID>2015-081H</OBJECT_ID><CENTER_NAME>EARTH</CENTER_NAME><REF_FRAME>TEME</REF_FRAME><TIME_SYSTEM>UTC</TIME_SYSTEM><MEAN_ELEMENT_THEORY>SGP4</MEAN_ELEMENT_THEORY></metadata><data><meanElements><EPOCH>2025-03-01T12:15:03.237696</EPOCH><MEAN_MOTION>14.62152916</MEAN_MOTION><ECCENTRICITY>.000166</ECCENTRICITY><INCLINATION>46.9972</INCLINATION><RA_OF_ASC_NODE>191.5574</RA_OF_ASC_NODE><ARG_OF_PERICENTER>258.8921</ARG_OF_PERICENTER><MEAN_ANOMALY>101.1779</MEAN_ANOMALY></meanElements><tleParameters><EPHEMERIS_TYPE>0</EPHEMERIS_TYPE><CLASSIFICATION_TYPE>U</CLASSIFICATION_TYPE><NORAD_CAT_ID>41186</NORAD_CAT_ID><ELEMENT_SET_NO>999</ELEMENT_SET_NO><REV_AT_EPOCH>49201</REV_AT_EPOCH><BSTAR>.48372E-3</BSTAR><MEAN_MOTION_DOT>.2283E-4</MEAN_MOTION_DOT><MEAN_MOTION_DDOT>0</MEAN_MOTION_DDOT></tleParameters></data></segment></body></omm>
<omm id="CCSDS_OMM_VERS" version="2.0">
<header><CREATION_DATE/><ORIGINATOR/></header><body><segment><metadata><OBJECT_NAME>ORBCOMM FM108</OBJECT_NAME><OBJECT_ID>2015-081J</OBJECT_ID><CENTER_NAME>EARTH</CENTER_NAME><REF_FRAME>TEME</REF_FRAME><TIME_SYSTEM>UTC</TIME_SYSTEM><MEAN_ELEMENT_THEORY>SGP4</MEAN_ELEMENT_THEORY></metadata><data><meanElements><EPOCH>2025-03-01T14:02:28.472064</EPOCH><MEAN_MOTION>14.57849855</MEAN_MOTION><ECCENTRICITY>.0002975</ECCENTRICITY><INCLINATION>47.0031</INCLINATION><RA_OF_ASC_NODE>255.0307</RA_OF_ASC_NODE><ARG_OF_PERICENTER>182.1820</ARG_OF_PERICENTER><MEAN_ANOMALY>177.9053</MEAN_ANOMALY></meanElements><tleParameters><EPHEMERIS_TYPE>0</EPHEMERIS_TYPE><CLASSIFICATION_TYPE>U</CLASSIFICATION_TYPE><NORAD_CAT_ID>41187</NORAD_CAT_ID><ELEMENT_SET_NO>999</ELEMENT_SET_NO><REV_AT_EPOCH>49109</REV_AT_EPOCH><BSTAR>.43311E-3</BSTAR><MEAN_MOTION_DOT>.1833E-4</MEAN_MOTION_DOT><MEAN_MOTION_DDOT>0</MEAN_MOTION_DDOT></tleParameters></data></segment></body></omm>
<omm id="CCSDS_OMM_VERS" version="2.0">
<header><CREATION_DATE/><ORIGINATOR/></header><body><segment><metadata><OBJECT_NAME>ORBCOMM FM117</OBJECT_NAME><OBJECT_ID>2015-081K</OBJECT_ID><CENTER_NAME>EARTH</CENTER_NAME><REF_FRAME>TEME</REF_FRAME><TIME_SYSTEM>UTC</TIME_SYSTEM><MEAN_ELEMENT_THEORY>SGP4</MEAN_ELEMENT_THEORY></metadata><data><meanElements><EPOCH>2025-03-01T13:13:53.270400</EPOCH><MEAN_MOTION>14.57852730</MEAN_MOTION><ECCENTRICITY>.0003394</ECCENTRICITY><INCLINATION>47.0005</INCLINATION><RA_OF_ASC_NODE>253.9881</RA_OF_ASC_NODE><ARG_OF_PERICENTER>188.9861</ARG_OF_PERICENTER><MEAN_ANOMALY>171.0964</MEAN_ANOMALY></meanElements><tleParameters><EPHEMERIS_TYPE>0</EPHEMERIS_TYPE><CLASSIFICATION_TYPE>U</CLASSIFICATION_TYPE><NORAD_CAT_ID>41188</NORAD_CAT_ID><ELEMENT_SET_NO>999</ELEMENT_SET_NO><REV_AT_EPOCH>49118</REV_AT_EPOCH><BSTAR>.36288E-3</BSTAR><MEAN_MOTION_DOT>.1509E-4</MEAN_MOTION_DOT><MEAN_MOTION_DDOT>0</MEAN_MOTION_DDOT></tleParameters></data></segment></body></omm>
<omm id="CCSDS_OMM_VERS" version="2.0">
<header><CREATION_DATE/><ORIGINATOR/></header><body><segment><metadata><OBJECT_NAME>ORBCOMM FM116</OBJECT_NAME><OBJECT_ID>2015-081L</OBJECT_ID><CENTER_NAME>EARTH</CENTER_NAME><REF_FRAME>TEME</REF_FRAME><TIME_SYSTEM>UTC</TIME_SYSTEM><MEAN_ELEMENT_THEORY>SGP4</MEAN_ELEMENT_THEORY></metadata><data><meanElements><EPOCH>2025-03-01T04:47:12.059232</EPOCH><MEAN_MOTION>14.57839227</MEAN_MOTION><ECCENTRICITY>.0002</ECCENTRICITY><INCLINATION>47.0029</INCLINATION><RA_OF_ASC_NODE>345.5092</RA_OF_ASC_NODE><ARG_OF_PERICENTER>278.9465</ARG_OF_PERICENTER><MEAN_ANOMALY>81.1193</MEAN_ANOMALY></meanElements><tleParameters><EPHEMERIS_TYPE>0</EPHEMERIS_TYPE><CLASSIFICATION_TYPE>U</CLASSIFICATION_TYPE><NORAD_CAT_ID>41189</NORAD_CAT_ID><ELEMENT_SET_NO>999</ELEMENT_SET_NO><REV_AT_EPOCH>48996</REV_AT_EPOCH><BSTAR>.65127E-3</BSTAR><MEAN_MOTION_DOT>.2842E-4</MEAN_MOTION_DOT><MEAN_MOTION_DDOT>0</MEAN_MOTION_DDOT></tleParameters></data></segment></body></omm>
</ndm>
