ORBCOMM FM115           
1 41186U 15081H   25060.51045414  .00002283  00000+0  48372-3 0  9993
2 41186  46.9972 191.5574 0001660 258.8921 101.1779 14.62152916492018
ORBCOMM FM108           
1 41187U 15081J   25060.58505176  .00001833  00000+0  43311-3 0  9995
2 41187  47.0031 255.0307 0002975 182.1820 177.9053 14.57849855491096
ORBCOMM FM117           
1 41188U 15081K   25060.55131100  .00001509  00000+0  36288-3 0  9990
2 41188  47.0005 253.9881 0003394 188.9861 171.0964 14.57852730491189
ORBCOMM FM116           
1 41189U 15081L   25060.19944513  .00002842  00000+0  65127-3 0  9996
2 41189  47.0029 345.5092 0002000 278.9465  81.1193 14.57839227489965
